{
  "norad_id": 45054,
  "name": "STARLINK-1156",
  "history": [
    {
      "epoch": "2026-03-28T16:46:24.844224",
      "apogee_km": 475.8347285416521,
      "perigee_km": 474.53383109631613,
      "latitude_deg": -53.033951977034405,
      "longitude_deg": -167.50572864012793,
      "semi_major_axis_km": 6853.321279818983,
      "eccentricity": 9.491e-05,
      "inclination_deg": 53.1616,
      "raan_deg": 192.6954,
      "arg_perigee_deg": 81.086,
      "mean_anomaly_deg": 279.0248,
      "mean_motion_rev_day": 15.30210312
    }
  ]
}